{
  "type": "FeatureCollection",
  "features": [
    {
      "type": "Feature",
      "properties": {
        "norad_id": 33765,
        "name": "COSMOS 2251 DEB",
        "group": "cosmos-2251-debris",
        "lat": -55.00157858647527,
        "lon": 121.60776766904377,
        "alt_km": 522.1484181442675,
        "timestamp": "2025-12-25T22:42:17.405608+00:00",
        "meta_object_name": "COSMOS 2251 DEB",
        "meta_object_id": "1993-036N",
        "meta_epoch": "2025-12-25T18:42:48.690144",
        "meta_mean_motion": 15.10688828,
        "meta_eccentricity": 0.0064729,
        "meta_inclination": 74.0099,
        "meta_ra_of_asc_node": 146.1287,
        "meta_arg_of_pericenter": 236.2539,
        "meta_mean_anomaly": 240.631,
        "meta_ephemeris_type": 0,
        "meta_classification_type": "U",
        "meta_norad_cat_id": 33765,
        "meta_element_set_no": 999,
        "meta_rev_at_epoch": 89815,
        "meta_bstar": 0.0016473,
        "meta_mean_motion_dot": 0.00028754,
        "meta_mean_motion_ddot": 0,
        "tle_line1": "1 33765U 93036N   25359.77973021  .00028754  00000+0  16473-2 0  9993",
        "tle_line2": "2 33765  74.0099 146.1287 0064729 236.2539 240.6310 15.10688828898156"
      },
      "geometry": {
        "type": "Point",
        "coordinates": [
          121.60776766904377,
          -55.00157858647527
        ]
      }
    },
    {
      "type": "Feature",
      "properties": {
        "norad_id": 33766,
        "name": "COSMOS 2251 DEB",
        "group": "cosmos-2251-debris",
        "lat": 8.056081616236686,
        "lon": -71.30143027913297,
        "alt_km": 811.6893824911067,
        "timestamp": "2025-12-25T22:42:17.405618+00:00",
        "meta_object_name": "COSMOS 2251 DEB",
        "meta_object_id": "1993-036P",
        "meta_epoch": "2025-12-25T18:33:25.189344",
        "meta_mean_motion": 14.3497211,
        "meta_eccentricity": 0.0064845,
        "meta_inclination": 74.1862,
        "meta_ra_of_asc_node": 111.3113,
        "meta_arg_of_pericenter": 311.1353,
        "meta_mean_anomaly": 48.4214,
        "meta_ephemeris_type": 0,
        "meta_classification_type": "U",
        "meta_norad_cat_id": 33766,
        "meta_element_set_no": 999,
        "meta_rev_at_epoch": 87932,
        "meta_bstar": 0.00055754,
        "meta_mean_motion_dot": 1.6e-05,
        "meta_mean_motion_ddot": 0,
        "tle_line1": "1 33766U 93036P   25359.77320821  .00001600  00000+0  55754-3 0  9995",
        "tle_line2": "2 33766  74.1862 111.3113 0064845 311.1353  48.4214 14.34972110879324"
      },
      "geometry": {
        "type": "Point",
        "coordinates": [
          -71.30143027913297,
          8.056081616236686
        ]
      }
    },
    {
      "type": "Feature",
      "properties": {
        "norad_id": 33768,
        "name": "COSMOS 2251 DEB",
        "group": "cosmos-2251-debris",
        "lat": 65.02810246179027,
        "lon": -123.61083557966269,
        "alt_km": 964.5741341437924,
        "timestamp": "2025-12-25T22:42:17.405629+00:00",
        "meta_object_name": "COSMOS 2251 DEB",
        "meta_object_id": "1993-036R",
        "meta_epoch": "2025-12-25T15:36:44.044128",
        "meta_mean_motion": 13.58465532,
        "meta_eccentricity": 0.0366871,
        "meta_inclination": 74.0665,
        "meta_ra_of_asc_node": 199.0311,
        "meta_arg_of_pericenter": 353.9578,
        "meta_mean_anomaly": 67.8104,
        "meta_ephemeris_type": 0,
        "meta_classification_type": "U",
        "meta_norad_cat_id": 33768,
        "meta_element_set_no": 999,
        "meta_rev_at_epoch": 83471,
        "meta_bstar": 0.00033524,
        "meta_mean_motion_dot": 3.57e-06,
        "meta_mean_motion_ddot": 0,
        "tle_line1": "1 33768U 93036R   25359.65050977  .00000357  00000+0  33524-3 0  9995",
        "tle_line2": "2 33768  74.0665 199.0311 0366871 353.9578  67.8104 13.58465532834713"
      },
      "geometry": {
        "type": "Point",
        "coordinates": [
          -123.61083557966269,
          65.02810246179027
        ]
      }
    },
    {
      "type": "Feature",
      "properties": {
        "norad_id": 33779,
        "name": "COSMOS 2251 DEB",
        "group": "cosmos-2251-debris",
        "lat": 45.31924579931378,
        "lon": 161.9238796083249,
        "alt_km": 661.4434740634097,
        "timestamp": "2025-12-25T22:42:17.405639+00:00",
        "meta_object_name": "COSMOS 2251 DEB",
        "meta_object_id": "1993-036U",
        "meta_epoch": "2025-12-25T13:02:13.947072",
        "meta_mean_motion": 14.70790039,
        "meta_eccentricity": 0.0015802,
        "meta_inclination": 74.0452,
        "meta_ra_of_asc_node": 145.8897,
        "meta_arg_of_pericenter": 178.9593,
        "meta_mean_anomaly": 256.9648,
        "meta_ephemeris_type": 0,
        "meta_classification_type": "U",
        "meta_norad_cat_id": 33779,
        "meta_element_set_no": 999,
        "meta_rev_at_epoch": 88716,
        "meta_bstar": 0.0026983,
        "meta_mean_motion_dot": 0.00016518,
        "meta_mean_motion_ddot": 0,
        "tle_line1": "1 33779U 93036U   25359.54321698  .00016518  00000+0  26983-2 0  9992",
        "tle_line2": "2 33779  74.0452 145.8897 0015802 178.9593 256.9648 14.70790039887163"
      },
      "geometry": {
        "type": "Point",
        "coordinates": [
          161.9238796083249,
          45.31924579931378
        ]
      }
    },
    {
      "type": "Feature",
      "properties": {
        "norad_id": 33782,
        "name": "COSMOS 2251 DEB",
        "group": "cosmos-2251-debris",
        "lat": 3.2084159904484877,
        "lon": 72.20391927423496,
        "alt_km": 770.5718677137211,
        "timestamp": "2025-12-25T22:42:17.405649+00:00",
        "meta_object_name": "COSMOS 2251 DEB",
        "meta_object_id": "1993-036X",
        "meta_epoch": "2025-12-24T17:50:41.915616",
        "meta_mean_motion": 14.40475861,
        "meta_eccentricity": 0.00211225,
        "meta_inclination": 74.0327,
        "meta_ra_of_asc_node": 255.3467,
        "meta_arg_of_pericenter": 318.6664,
        "meta_mean_anomaly": 104.7613,
        "meta_ephemeris_type": 0,
        "meta_classification_type": "U",
        "meta_norad_cat_id": 33782,
        "meta_element_set_no": 999,
        "meta_rev_at_epoch": 88299,
        "meta_bstar": 0.00033132965,
        "meta_mean_motion_dot": 1.03e-05,
        "meta_mean_motion_ddot": 0,
        "tle_line1": "1 33782U 93036X   25358.74354069  .00001030  00000+0  33133-3 0  9994",
        "tle_line2": "2 33782  74.0327 255.3467 0021122 318.6664 104.7613 14.40475861882990"
      },
      "geometry": {
        "type": "Point",
        "coordinates": [
          72.20391927423496,
          3.2084159904484877
        ]
      }
    },
    {
      "type": "Feature",
      "properties": {
        "norad_id": 33785,
        "name": "COSMOS 2251 DEB",
        "group": "cosmos-2251-debris",
        "lat": 21.458586799820793,
        "lon": 40.564962535564305,
        "alt_km": 647.827451020461,
        "timestamp": "2025-12-25T22:42:17.405660+00:00",
        "meta_object_name": "COSMOS 2251 DEB",
        "meta_object_id": "1993-036AA",
        "meta_epoch": "2025-12-25T13:32:10.630752",
        "meta_mean_motion": 14.70767177,
        "meta_eccentricity": 0.002323,
        "meta_inclination": 73.8665,
        "meta_ra_of_asc_node": 34.7806,
        "meta_arg_of_pericenter": 332.049,
        "meta_mean_anomaly": 188.3366,
        "meta_ephemeris_type": 0,
        "meta_classification_type": "U",
        "meta_norad_cat_id": 33785,
        "meta_element_set_no": 999,
        "meta_rev_at_epoch": 88695,
        "meta_bstar": 0.001995,
        "meta_mean_motion_dot": 0.00012216,
        "meta_mean_motion_ddot": 0,
        "tle_line1": "1 33785U 93036AA  25359.56401193  .00012216  00000+0  19950-2 0  9997",
        "tle_line2": "2 33785  73.8665  34.7806 0023230 332.0490 188.3366 14.70767177886950"
      },
      "geometry": {
        "type": "Point",
        "coordinates": [
          40.564962535564305,
          21.458586799820793
        ]
      }
    },
    {
      "type": "Feature",
      "properties": {
        "norad_id": 33789,
        "name": "COSMOS 2251 DEB",
        "group": "cosmos-2251-debris",
        "lat": -72.93506152473876,
        "lon": -3.5562599874497596,
        "alt_km": 961.3989958619777,
        "timestamp": "2025-12-25T22:42:17.405670+00:00",
        "meta_object_name": "COSMOS 2251 DEB",
        "meta_object_id": "1993-036AE",
        "meta_epoch": "2025-12-25T11:08:38.283072",
        "meta_mean_motion": 13.88822989,
        "meta_eccentricity": 0.0239538,
        "meta_inclination": 74.0643,
        "meta_ra_of_asc_node": 65.8106,
        "meta_arg_of_pericenter": 178.6317,
        "meta_mean_anomaly": 207.3493,
        "meta_ephemeris_type": 0,
        "meta_classification_type": "U",
        "meta_norad_cat_id": 33789,
        "meta_element_set_no": 999,
        "meta_rev_at_epoch": 85272,
        "meta_bstar": 0.00062877,
        "meta_mean_motion_dot": 9.32e-06,
        "meta_mean_motion_ddot": 0,
        "tle_line1": "1 33789U 93036AE  25359.46433198  .00000932  00000+0  62877-3 0  9999",
        "tle_line2": "2 33789  74.0643  65.8106 0239538 178.6317 207.3493 13.88822989852725"
      },
      "geometry": {
        "type": "Point",
        "coordinates": [
          -3.5562599874497596,
          -72.93506152473876
        ]
      }
    }
  ]
}